{
    "links": {
        "self": "http://www.neowsapp.com/rest/v1/neo/54016634?api_key=iIulBulltgU6a56xZRHN4H3l9WmuAYTsLGpBGhQ2"
    },
    "id": "54016634",
    "neo_reference_id": "54016634",
    "name": "(2020 HO2)",
    "designation": "2020 HO2",
    "nasa_jpl_url": "http://ssd.jpl.nasa.gov/sbdb.cgi?sstr=54016634",
    "absolute_magnitude_h": 24.322,
    "estimated_diameter": {
        "kilometers": {
            "estimated_diameter_min": 0.0363207641,
            "estimated_diameter_max": 0.0812156976
        },
        "meters": {
            "estimated_diameter_min": 36.3207641141,
            "estimated_diameter_max": 81.2156975538
        },
        "miles": {
            "estimated_diameter_min": 0.0225686695,
            "estimated_diameter_max": 0.0504650792
        },
        "feet": {
            "estimated_diameter_min": 119.162615736,
            "estimated_diameter_max": 266.4557091625
        }
    },
    "is_potentially_hazardous_asteroid": false,
    "close_approach_data": [
        {
            "close_approach_date": "2020-04-25",
            "close_approach_date_full": "2020-Apr-25 01:37",
            "epoch_date_close_approach": 1587778620000,
            "relative_velocity": {
                "kilometers_per_second": "12.6304885701",
                "kilometers_per_hour": "45469.7588523013",
                "miles_per_hour": "28253.1398824202"
            },
            "miss_distance": {
                "astronomical": "0.1466392173",
                "lunar": "57.0426555297",
                "kilometers": "21936914.566547151",
                "miles": "13630966.6353306438"
            },
            "orbiting_body": "Earth"
        },
        {
            "close_approach_date": "2023-04-24",
            "close_approach_date_full": "2023-Apr-24 10:31",
            "epoch_date_close_approach": 1682332260000,
            "relative_velocity": {
                "kilometers_per_second": "17.1725099127",
                "kilometers_per_hour": "61821.0356857312",
                "miles_per_hour": "38413.1874237256"
            },
            "miss_distance": {
                "astronomical": "0.3823677565",
                "lunar": "148.7410572785",
                "kilometers": "57201401.929078655",
                "miles": "35543302.993869239"
            },
            "orbiting_body": "Earth"
        },
        {
            "close_approach_date": "2023-10-01",
            "close_approach_date_full": "2023-Oct-01 11:32",
            "epoch_date_close_approach": 1696159920000,
            "relative_velocity": {
                "kilometers_per_second": "12.6294503231",
                "kilometers_per_hour": "45466.0211631521",
                "miles_per_hour": "28250.8174277375"
            },
            "miss_distance": {
                "astronomical": "0.3841587755",
                "lunar": "149.4377636695",
                "kilometers": "57469334.556608185",
                "miles": "35709788.608575553"
            },
            "orbiting_body": "Earth"
        }
    ],
    "orbital_data": {
        "orbit_id": "4",
        "orbit_determination_date": "2020-04-27 07:39:02",
        "first_observation_date": "2020-04-20",
        "last_observation_date": "2020-04-27",
        "data_arc_in_days": 7,
        "observations_used": 38,
        "orbit_uncertainty": "8",
        "minimum_orbit_intersection": ".137706",
        "jupiter_tisserand_invariant": "4.929",
        "epoch_osculation": "2458961.5",
        "eccentricity": ".1463153151740653",
        "semi_major_axis": "1.290190061260805",
        "inclination": "24.50920009430044",
        "ascending_node_longitude": "211.1232975634815",
        "orbital_period": "535.2774709758054",
        "perihelion_distance": "1.101415495812984",
        "perihelion_argument": "46.85628745870773",
        "aphelion_distance": "1.478964626708626",
        "perihelion_time": "2459015.467008694089",
        "mean_anomaly": "323.7045753215528",
        "mean_motion": ".6725483875563147",
        "equinox": "J2000",
        "orbit_class": {
            "orbit_class_type": "AMO",
            "orbit_class_description": "Near-Earth asteroid orbits similar to that of 1221 Amor",
            "orbit_class_range": "1.017 AU < q (perihelion) < 1.3 AU"
        }
    },
    "is_sentry_object": false
}